COMMENT,ORIGINATOR,NORAD_CAT_ID,OBJECT_NAME,OBJECT_TYPE,CLASSIFICATION_TYPE,INTLDES,EPOCH,EPOCH_MICROSECONDS,MEAN_MOTION,ECCENTRICITY,INCLINATION,RA_OF_ASC_NODE,ARG_OF_PERICENTER,MEAN_ANOMALY,EPHEMERIS_TYPE,ELEMENT_SET_NO,REV_AT_EPOCH,BSTAR,MEAN_MOTION_DOT,MEAN_MOTION_DDOT,FILE,TLE_LINE0,TLE_LINE1,TLE_LINE2,OBJECT_ID,OBJECT_NUMBER,SEMIMAJOR_AXIS,PERIOD,APOGEE,PERIGEE,DECAYED,date
GENERATED VIA SPACETRACK.ORG API,18 SPCS,48896,SPACEBEE-105,PAYLOAD,U,21059T,2023/3/15 14:28,739456,15.25420395,0.0008141,97.58,209.6405,233.9784,126.07,0,999,9509,0.0020073,0.00050993,0,3861350,0 SPACEBEE-105,1 48896U 21059T   23074.60336504  .00050993  00000-0  20073-2 0  9995,2 48896  97.5800 209.6405 0008141 233.9784 126.0700 15.25420395 95097,2021-059T,48896,6867.66,94.4,495.116,483.934,0,
GENERATED VIA SPACETRACK.ORG API,18 SPCS,48896,SPACEBEE-105,PAYLOAD,U,21059T,2023/3/15 19:12,556160,15.2543614,0.0008133,97.5802,209.84,233.3647,126.6843,0,999,9512,0.0017583,0.00044641,0,3861599,0 SPACEBEE-105,1 48896U 21059T   23074.80015690  .00044641  00000-0  17583-2 0  9992,2 48896  97.5802 209.8400 0008133 233.3647 126.6843 15.25436140 95122,2021-059T,48896,6867.613,94.399,495.064,483.893,0,
GENERATED VIA SPACETRACK.ORG API,18 SPCS,48896,SPACEBEE-105,PAYLOAD,U,21059T,2023/3/16 3:04,115424,15.25470808,0.0008117,97.5801,210.1723,232.4482,127.6019,0,999,9517,0.0019668,0.00050032,0,3861723,0 SPACEBEE-105,1 48896U 21059T   23075.12813791  .00050032  00000-0  19668-2 0  9993,2 48896  97.5801 210.1723 0008117 232.4482 127.6019 15.25470808 95173,2021-059T,48896,6867.509,94.397,494.948,483.8,0,
GENERATED VIA SPACETRACK.ORG API,18 SPCS,48896,SPACEBEE-105,PAYLOAD,U,21059T,2023/3/16 7:47,332512,15.25491725,0.0008164,97.5801,210.3718,231.8912,128.159,0,999,9520,0.0019898,0.00050654,0,3862295,0 SPACEBEE-105,1 48896U 21059T   23075.32492283  .00050654  00000-0  19898-2 0  9999,2 48896  97.5801 210.3718 0008164 231.8912 128.1590 15.25491725 95207,2021-059T,48896,6867.446,94.396,494.918,483.705,0,
GENERATED VIA SPACETRACK.ORG API,18 SPCS,48896,SPACEBEE-105,PAYLOAD,U,21059T,2023/3/17 4:15,793600,15.25550265,0.0008098,97.5805,211.2362,228.6813,131.3728,0,999,9533,0.0013516,0.00034368,0,3862725,0 SPACEBEE-105,1 48896U 21059T   23076.17763650  .00034368  00000-0  13516-2 0  9997,2 48896  97.5805 211.2362 0008098 228.6813 131.3728 15.25550265 95334,2021-059T,48896,6867.271,94.392,494.697,483.574,0,
GENERATED VIA SPACETRACK.ORG API,18 SPCS,48896,SPACEBEE-105,PAYLOAD,U,21059T,2023/3/17 8:59,168288,15.25564529,0.0008101,97.5806,211.4356,228.035,132.0198,0,999,9536,0.0013131,0.00033397,0,3863278,0 SPACEBEE-105,1 48896U 21059T   23076.37441167  .00033397  00000-0  13131-2 0  9999,2 48896  97.5806 211.4356 0008101 228.0350 132.0198 15.25564529 95365,2021-059T,48896,6867.228,94.391,494.656,483.53,0,
GENERATED VIA SPACETRACK.ORG API,18 SPCS,48896,SPACEBEE-105,PAYLOAD,U,21059T,2023/3/17 21:34,390144,15.25603736,0.0008103,97.5808,211.9675,226.0513,134.0057,0,999,9544,0.0013773,0.00035083,0,3863544,0 SPACEBEE-105,1 48896U 21059T   23076.89913646  .00035083  00000-0  13773-2 0  9998,2 48896  97.5808 211.9675 0008103 226.0513 134.0057 15.25603736 95446,2021-059T,48896,6867.11,94.389,494.54,483.411,0,
GENERATED VIA SPACETRACK.ORG API,18 SPCS,48896,SPACEBEE-105,PAYLOAD,U,21059T,2023/3/18 8:35,722752,15.25635104,0.0008121,97.5808,212.4329,224.6105,135.448,0,999,9551,0.0013853,0.00035322,0,3863976,0 SPACEBEE-105,1 48896U 21059T   23077.35826068  .00035322  00000-0  13853-2 0  9996,2 48896  97.5808 212.4329 0008121 224.6105 135.4480 15.25635104 95516,2021-059T,48896,6867.016,94.387,494.458,483.304,0,
GENERATED VIA SPACETRACK.ORG API,18 SPCS,48896,SPACEBEE-105,PAYLOAD,U,21059T,2023/3/18 21:11,875328,15.25671517,0.0008159,97.5807,212.9649,222.8939,137.1663,0,999,9559,0.001272,0.0003245,0,3864479,0 SPACEBEE-105,1 48896U 21059T   23077.88296152  .00032450  00000-0  12720-2 0  9990,2 48896  97.5807 212.9649 0008159 222.8939 137.1663 15.25671517 95599,2021-059T,48896,6866.907,94.385,494.374,483.169,0,
GENERATED VIA SPACETRACK.ORG API,18 SPCS,48896,SPACEBEE-105,PAYLOAD,U,21059T,2023/3/19 8:12,365024,15.25704554,0.0008165,97.5808,213.4303,221.4591,138.6028,0,999,9566,0.0013303,0.00033981,0,3865049,0 SPACEBEE-105,1 48896U 21059T   23078.34206441  .00033981  00000-0  13303-2 0  9992,2 48896  97.5808 213.4303 0008165 221.4591 138.6028 15.25704554 95666,2021-059T,48896,6866.808,94.383,494.279,483.066,0,
GENERATED VIA SPACETRACK.ORG API,18 SPCS,48896,SPACEBEE-105,PAYLOAD,U,21059T,2023/3/19 19:13,981216,15.25738501,0.0008158,97.5808,213.8957,219.8634,140.2005,0,999,9573,0.0013422,0.00034322,0,3865151,0 SPACEBEE-105,1 48896U 21059T   23078.80115719  .00034322  00000-0  13422-2 0  9992,2 48896  97.5808 213.8957 0008158 219.8634 140.2005 15.25738501 95737,2021-059T,48896,6866.706,94.381,494.173,482.969,0,
GENERATED VIA SPACETRACK.ORG API,18 SPCS,48896,SPACEBEE-105,PAYLOAD,U,21059T,2023/3/19 20:48,421536,15.25743367,0.0008162,97.5808,213.9622,219.7017,140.3624,0,999,9574,0.0013365,0.00034181,0,3865354,0 SPACEBEE-105,1 48896U 21059T   23078.86674099  .00034181  00000-0  13365-2 0  9998,2 48896  97.5808 213.9622 0008162 219.7017 140.3624 15.25743367 95741,2021-059T,48896,6866.691,94.38,494.161,482.952,0,
GENERATED VIA SPACETRACK.ORG API,18 SPCS,48896,SPACEBEE-105,PAYLOAD,U,21059T,2023/3/20 7:49,64,15.25779338,0.0008168,97.5811,214.4276,218.4768,141.5888,0,999,9581,0.0014483,0.00037101,0,3865912,0 SPACEBEE-105,1 48896U 21059T   23079.32582176  .00037101  00000-0  14483-2 0  9991,2 48896  97.5811 214.4276 0008168 218.4768 141.5888 15.25779338 95811,2021-059T,48896,6866.583,94.378,494.057,482.84,0,
GENERATED VIA SPACETRACK.ORG API,18 SPCS,48896,SPACEBEE-105,PAYLOAD,U,21059T,2023/3/21 4:16,302784,15.25848606,0.000809,97.5821,215.2922,215.3902,144.68,0,999,9594,0.0015707,0.00040343,0,3866251,0 SPACEBEE-105,1 48896U 21059T   23080.17837156  .00040343  00000-0  15707-2 0  9999,2 48896  97.5821 215.2922 0008090 215.3902 144.6800 15.25848606 95946,2021-059T,48896,6866.375,94.374,493.795,482.686,0,
GENERATED VIA SPACETRACK.ORG API,18 SPCS,48896,SPACEBEE-105,PAYLOAD,U,21059T,2023/3/21 9:00,334656,15.25865481,0.0008084,97.5822,215.4915,214.6996,145.3715,0,999,9597,0.0015326,0.00039378,0,3866730,0 SPACEBEE-105,1 48896U 21059T   23080.37510804  .00039378  00000-0  15326-2 0  9992,2 48896  97.5822 215.4915 0008084 214.6996 145.3715 15.25865481 95975,2021-059T,48896,6866.325,94.373,493.741,482.639,0,
GENERATED VIA SPACETRACK.ORG API,18 SPCS,48896,SPACEBEE-105,PAYLOAD,U,21059T,2023/3/21 21:35,636576,15.25905991,0.0008067,97.5826,216.0235,212.8097,147.2641,0,999,9605,0.0014544,0.000374,0,3866953,0 SPACEBEE-105,1 48896U 21059T   23080.89972959  .00037400  00000-0  14544-2 0  9997,2 48896  97.5826 216.0235 0008067 212.8097 147.2641 15.25905991 96054,2021-059T,48896,6866.203,94.37,493.607,482.529,0,
GENERATED VIA SPACETRACK.ORG API,18 SPCS,48896,SPACEBEE-105,PAYLOAD,U,21059T,2023/3/22 8:36,980640,15.25943803,0.0008098,97.5827,216.489,211.2372,148.8386,0,999,9612,0.001545,0.00039793,0,3867415,0 SPACEBEE-105,1 48896U 21059T   23081.35876135  .00039793  00000-0  15450-2 0  9992,2 48896  97.5827 216.4890 0008098 211.2372 148.8386 15.25943803 96124,2021-059T,48896,6866.09,94.368,493.515,482.395,0,
GENERATED VIA SPACETRACK.ORG API,18 SPCS,48896,SPACEBEE-105,PAYLOAD,U,21059T,2023/3/22 21:12,814112,15.25989842,0.0008108,97.5828,217.0211,209.5085,150.5696,0,999,9620,0.0015646,0.00040357,0,3868201,0 SPACEBEE-105,1 48896U 21059T   23081.88335433  .00040357  00000-0  15646-2 0  9996,2 48896  97.5828 217.0211 0008108 209.5085 150.5696 15.25989842 96208,2021-059T,48896,6865.952,94.365,493.384,482.25,0,
GENERATED VIA SPACETRACK.ORG API,18 SPCS,48896,SPACEBEE-105,PAYLOAD,U,21059T,2023/3/23 14:30,424768,15.26047931,0.0008135,97.5829,217.7528,207.3544,152.7266,0,999,9631,0.0015808,0.0004085,0,3868494,0 SPACEBEE-105,1 48896U 21059T   23082.60464612  .00040850  00000-0  15808-2 0  9997,2 48896  97.5829 217.7528 0008135 207.3544 152.7266 15.26047931 96317,2021-059T,48896,6865.777,94.361,493.228,482.057,0,
GENERATED VIA SPACETRACK.ORG API,18 SPCS,48896,SPACEBEE-105,PAYLOAD,U,21059T,2023/3/23 20:48,351104,15.26085024,0.000809,97.5828,218.0188,206.4406,153.642,0,999,9635,0.0021354,0.00055376,0,3868601,0 SPACEBEE-105,1 48896U 21059T   23082.86692536  .00055376  00000-0  21354-2 0  9995,2 48896  97.5828 218.0188 0008090 206.4406 153.6420 15.26085024 96350,2021-059T,48896,6865.666,94.359,493.086,481.977,0,
GENERATED VIA SPACETRACK.ORG API,18 SPCS,48896,SPACEBEE-105,PAYLOAD,U,21059T,2023/3/23 22:22,510976,15.26092218,0.0008124,97.5827,218.0855,206.1169,153.966,0,999,9636,0.0021736,0.00056389,0,3868816,0 SPACEBEE-105,1 48896U 21059T   23082.93249434  .00056389  00000-0  21736-2 0  9997,2 48896  97.5827 218.0855 0008124 206.1169 153.9660 15.26092218 96364,2021-059T,48896,6865.645,94.359,493.087,481.932,0,
GENERATED VIA SPACETRACK.ORG API,18 SPCS,48896,SPACEBEE-105,PAYLOAD,U,21059T,2023/3/24 7:49,620032,15.26200316,0.0008058,97.5828,218.4844,204.961,155.1239,0,999,9642,0.0050984,0.0013418,0,3869430,0 SPACEBEE-105,1 48896U 21059T   23083.32589838  .00134180  00000-0  50984-2 0  9999,2 48896  97.5828 218.4844 0008058 204.9610 155.1239 15.26200316 96423,2021-059T,48896,6865.32,94.352,492.718,481.653,0,
GENERATED VIA SPACETRACK.ORG API,18 SPCS,48896,SPACEBEE-105,PAYLOAD,U,21059T,2023/3/24 7:49,620032,15.26200316,0.0008058,97.5828,218.4844,204.961,155.1239,0,999,9642,0.0050984,0.0013418,0,3869846,0 SPACEBEE-105,1 48896U 21059T   23083.32589838  .00134180  00000-0  50984-2 0  9999,2 48896  97.5828 218.4844 0008058 204.9610 155.1239 15.26200316 96423,2021-059T,48896,6865.32,94.352,492.718,481.653,0,
